zip_code,city,state
84311,Henryborough,AK
15093,Staceyfort,NE
03779,East Zoe,MT
97697,North Kenneth,NC
36549,New Kellihaven,MS
32599,Lake Matthewberg,CO
29757,Mooreburgh,CT
18790,Lake Samuel,GA
97031,Diazbury,FL
13935,Bishopmouth,KS
89197,New John,CO
97581,Mckeeborough,ME
71983,Erikashire,TX
11896,Murrayport,AR
77898,Shawchester,MD
55803,Port James,AK
04666,Port John,AR
04406,Sawyerside,MS
12781,Lake Meghanville,MD
29158,Christopherburgh,MT
30996,Shannonhaven,MD
66738,Port Samuel,MS
79408,Port Shannon,DE
03979,Sarahchester,ID
74064,South Waynebury,WV
26563,Vangstad,OR
94351,North Lucas,NM
85682,Port Jennifermouth,WV
92425,East Benjamin,MS
71927,Hortonberg,KY
55488,Westtown,MD
29394,North Jonathanberg,OH
59379,Rodriguezport,CA
77737,West David,AK
36964,South Danielle,SC
01352,Brownfort,AK
21427,Lake Zacharybury,OH
92007,West Ruben,TX
55893,Johnchester,IA
45098,Lake Elizabeth,OH
36922,Carloshaven,WY
20880,South Morganton,ME
28722,Zavalaview,MT
44619,West Kristinastad,CO
13897,Lake Diane,SC
12657,Port Bonniemouth,IL
50298,North Michael,FL
13177,Lisaburgh,ND
47553,Pollardfort,WY
45583,Port Dennis,ND
79632,Johnsonborough,OH
35172,Port Jameston,AZ
06196,Sarahhaven,NH
96148,Haysside,RI
60718,Kingborough,SD
70785,Michaelton,AL
16862,Joshuastad,NJ
50116,Prestonmouth,PA
10829,Morganburgh,TX
72858,Holtstad,MI
38928,Lauriechester,SC
82898,South Carrieburgh,OR
81571,Manuelland,NY
47901,Donnaport,AZ
76175,Morrisonchester,WA
25704,Lake Scott,OK
92850,Williamsstad,ME
09617,Hillton,MO
06507,Lake Danastad,DE
87174,North Douglas,DC
30372,Johnsonland,OH
38431,Port Deanna,NE
10959,Patrickshire,RI
31013,New Ericmouth,MD
13739,Nathanland,TX
50324,New Michael,SC
36935,Debrabury,WV
59930,North Jillfort,NV
83821,Mcintyreville,IA
48320,Kimberlymouth,MD
21820,New Justin,IL
49021,Gonzalezberg,PA
47067,South Geraldmouth,AK
27961,Port Evelynmouth,UT
88342,Jennaside,SD
35494,Patriciaburgh,PA
92489,Port Michael,AL
90094,North Tracie,AL
85440,East Kristy,HI
09859,West Angelastad,OH
80341,Laraside,UT
83728,New Nicole,NM
22932,West Raymondfort,MO
70511,Hammondshire,CO
96069,East Teresaland,SD
32588,Owenshaven,CA
21918,Davidside,AK
61090,Port Tammy,TN
50236,Shawton,TX
35883,New Ericburgh,MI
84387,West Sarah,MS
90699,West Stacey,PA
73501,Meghanview,MS
29286,Lake Stephanie,WI
90234,Davidport,UT
43005,New Danielleshire,DE
07832,East Donna,MN
30522,Meganshire,NV
04708,Port Michelleland,IN
41848,Lake Kelliview,AK
53082,Port Ashley,KY
35594,South Pamelaside,VT
09176,Dawnport,ID
28154,Sanchezfurt,RI
74842,Shawnton,ME
94599,South Robert,VT
41746,Harrisberg,IN
28370,Michellemouth,MN
86410,Theresaberg,KY
65936,Zacharyville,VT
52357,Johnville,PA
84760,Shannonberg,AL
60643,North Kellyfurt,SC
19227,Wrightburgh,DE
35219,Sarahmouth,KY
18802,Port Erik,NY
32826,Jimenezport,GA
98148,Johnsonfurt,ID
74080,Levyborough,WA
71145,Brandonport,TX
34939,Harperfort,PA
98413,Amandaville,HI
77123,Andersonview,OR
56656,Kathrynstad,WA
76985,South Brettside,DC
52851,West Angela,OK
47948,South Williamside,IN
29247,Marciaville,NC
18632,North Phillip,WY
67285,Angelastad,ID
65187,East Carrie,TX
12416,Porterton,UT
99562,East Jenniferfort,ND
06676,Hernandezhaven,KS
14872,West Sarah,OH
20534,Franciscoport,NH
82741,Williamhaven,NE
21470,Ericksonport,TX
89693,Cabrerastad,AR
55834,Emilychester,MD
78673,Lauratown,MT
08827,Bakershire,DE
50933,Lake Brett,NC
50520,Jacksonfurt,NM
78605,Port Erin,NC
61849,New Stacyville,AZ
69853,North Scott,VA
33454,Hernandezborough,AR
73013,Shawfort,MT
02005,Lake Devinborough,NV
89667,Whitneyfort,AL
94967,Edwardsburgh,ID
15515,Barrmouth,CO
89854,Ericaview,OK
70882,Leebury,AK
98920,Angelabury,IN
35474,Kellieborough,NE
84513,Stewartstad,IA
45088,Keithshire,GA
15122,Huangfurt,ME
38970,Stephanieberg,SC
57486,Bobbyland,CT
21231,Sandraview,NJ
59971,Lewisside,AK
00926,Sarahview,SC
95147,North Christina,KS
94830,East Brent,CT
35023,Lake Jesse,IA
66113,South Markfort,AR
23917,Lake Kellitown,MA
67043,South Denise,WY
14448,Woodsborough,CA
82460,Manuelton,PA
39618,Lake Audreyside,NV
84249,East Robertburgh,CT
67041,Port Randyfort,NV
80319,Lake Suzanne,DE
26572,Nancytown,AR
20533,Ashleyville,AZ
49510,Justinside,MD
21675,Smallberg,UT
71198,Nelsonville,WY
70015,Franciscomouth,AR
00575,Jennifertown,NV
79005,Krystalshire,ME
42988,East Cheryl,SC
64543,Wilcoxhaven,CA
03053,Christopherville,TX
15163,East Thomas,OH
48077,North Jose,LA
40807,South Karen,MS
31886,Kevinshire,CT
08093,West Desireebury,WV
32072,Lake Davidport,IN
74865,South Gina,PA
10823,Hannahport,TN
11727,Christinabury,AL
96433,South Eric,MS
64200,Robertside,WY
09572,Toddborough,RI
70323,Lake Karen,CT
16984,New Seanstad,SD
17329,New Danielside,WY
86975,New Amanda,NH
62797,West Melissa,MA
72564,Wilsonborough,ID
22144,Davishaven,CT
35242,Stokesmouth,PA
69664,New Robert,CA
80008,New Stevenport,WY
55962,South Jonathantown,ID
28261,New Charles,OK
71187,Cooperland,SC
99495,North Valeriefort,KS
96174,West Robertberg,MT
90923,Brooksfurt,VA
26866,Kanefurt,NV
93948,Millerside,IA
41358,Lake Michelle,AZ
52797,East Victoriafurt,DC
88540,Lake Tiffany,OR
85681,Port Andrewport,NY
49445,Nunezside,WV
57923,Patelbury,ME
68340,South Michael,ND
59678,Jacobville,FL
16361,Port Donnatown,NJ
32994,East Carlos,PA
29952,South Carlaton,LA
08893,Lake Bradley,AL
44814,Youngborough,OR
03258,East Williamport,TX
77611,Port Sabrina,AR
73104,Barbaramouth,NY
30662,West Nancy,OH
77629,South Kevin,AR
29365,New Stacyburgh,MI
01443,Peterston,ID
09806,Shellyfurt,ID
93279,Heatherchester,CA
83220,West Nicholas,ID
08217,Allenbury,NJ
30508,Meredithberg,UT
09335,Melendezside,PA
04618,Faulknerside,MA
43810,South John,OR
09788,West Deborah,MA
67892,Booneland,ME
31696,North Joseph,MA
37001,Port Charlesshire,CT
88185,South Jason,WY
64125,Kevintown,AZ
28581,East Suzanne,IN
71179,Lake Yvonnefort,AL
17843,Lake Cassandra,IN
95312,South Rose,IN
75348,Kimberlyfurt,RI
76026,Fergusonstad,IA
62454,Josehaven,WA
32351,Owensfort,MA
62494,Robinstad,WA
53855,Robertshire,IL
25458,Lake Dustin,HI
12864,Angelashire,AL
13205,Phillipsborough,AL
86875,Jerryshire,MI
56999,South Andrea,OH
46939,Jonathanfort,FL
56020,Murraystad,NV
54384,East Jennifer,SC
61714,Whiteside,WV
96062,New Arthurland,AZ
07601,Port Adamberg,ID
88760,North Jasmine,LA
86150,East Williamstad,IN
85197,New Danafort,KS
13400,Smithside,HI
08445,Smithhaven,OH
53273,Amandaport,HI
95949,New Lisachester,AK
44974,North Samantha,KS
14823,East James,CT
33092,Lisaview,TX
25613,Millerfurt,MS
25432,Cunninghambury,WY
70793,Gabriellaland,DE
59301,North Richardfurt,IL
18874,Browntown,NH
55797,North Vincent,MN
24551,Newmanmouth,MN
37010,New Samanthabury,GA
61138,Port Heather,RI
33243,Nelsonland,NE
10381,Rachelshire,VT
58583,East Sarahmouth,DE
72633,East Brendafurt,DC
13334,West Franciscobury,ID
07131,Rhodesside,ND
85978,Patrickberg,UT
71356,New Juliestad,MD
02435,North Samuelland,NE
12725,Cassiefurt,IA
99272,Anthonyview,AZ
31483,Henrystad,RI
22299,Reynoldsshire,ID
53770,Millerport,ND
64154,Lake Charles,WY
63593,Ericberg,MD
28517,Stewartville,AR
53066,North Sherrymouth,WY
08186,Kathleenville,DC
22080,North Jacob,NY
50173,Hawkinshaven,NM
00783,Garcialand,VA
51674,Angelamouth,WY
35261,Smithchester,WY
60139,Maxwellside,RI
37889,New Adriana,GA
55945,Jacksonview,MS
91804,Josephberg,SD
96249,East Ryanchester,NY
73346,Toddland,NM
87253,Johnathanbury,NH
94664,Wheelerborough,MD
64289,Rodriguezport,MN
20790,South Martinfurt,UT
25391,Scottchester,VT
39391,West Malik,NJ
29035,South Leon,OR
08166,Novakport,SC
76415,Faulknerbury,WY
96935,Nicholasfurt,SD
71567,Danielshire,IL
08490,New Wendy,ID
98539,Lake Katrina,IA
41605,Lake Stevenborough,IL
07993,Salinasland,NE
07073,Chambersberg,MS
77070,Johnberg,GA
62994,Mccormickland,MN
66410,Ewingfort,OH
70116,Fergusonchester,DC
21136,Port Tanyaside,CO
07956,North Kaylastad,NV
67063,Lake Cheyenne,MI
11001,Rasmussenmouth,OR
24857,Rodriguezville,NH
09482,Jeffreyhaven,RI
78493,South Neil,NE
09408,Bartonshire,NH
89002,West Whitney,MT
31329,Garciachester,NM
53424,North Marieberg,KY
16214,Larrymouth,AK
75169,New Timothy,NV
32772,Davismouth,KS
76381,Carloston,CA
78425,North Melindaville,CO
05710,Lake John,NY
81684,New Ethan,ND
11246,Mullenbury,CO
55449,Sotoburgh,KY
86664,Fosterborough,CT
77004,Vargasfurt,CA
74586,Lake Jasonview,AZ
69023,New Cristianside,ID
41968,West Mark,ID
34680,Wilsonfort,MA
27273,Candicefurt,ME
88283,West Michaelmouth,WI
94373,Port Emily,KY
41681,Samanthashire,VT
31786,Lake Dennisville,DC
35315,West Daryl,WV
52377,Heatherhaven,WA
17655,Barnesberg,KS
88540,Hendersonfort,WI
85108,New Garrett,LA
39822,Donaldmouth,MI
60430,Harveystad,MO
41942,South Derrickfurt,OR
99049,Ortizfort,SD
10009,Mckinneymouth,NJ
01721,Jacksonshire,NY
60569,Port Kathleenport,FL
81917,West Jeffreyport,MO
74293,Port Stephen,IN
13605,Dunnville,WA
10103,West Kimberlystad,NJ
70969,Port Jenniferside,NC
28439,South Curtis,WY
66808,West Nancy,WV
35261,South Joseland,VA
17862,Grimesville,NH
46246,East Lisa,WY
09517,Michellechester,MD
32519,New Donald,ID
48935,Port Jamie,WI
37854,New Michaelview,MT
21177,West Tiffany,NV
57934,Keithview,OH
71701,East Sydneychester,MN
92715,West Michelleberg,OK
40152,East Dustin,DC
80674,Mariafurt,WA
86218,Thomasview,NM
69830,Brooksland,TN
01526,South Zacharyview,MI
88039,Shawnfort,IN
73193,Brandiland,NE
39741,Reidstad,WV
87452,Port Amandaborough,WV
14078,Summersfort,UT
18102,Marcusport,ME
35165,Amyberg,OR
15630,Kramerton,OK
14530,North Conniemouth,AZ
97811,North Sarahburgh,FL
73013,Bryantchester,OK
20875,Lake Regina,PA
36198,Erikview,PA
37431,Lake Michaelland,MO
79777,Elizabethburgh,IL
28108,South Conniebury,CA
94559,Riosville,MS
45443,East Thomasberg,NJ
27186,New Erin,MA
90612,North Heatherville,NV
83631,Bensonfort,ME
35101,East Patrickville,GA
66745,West Michaelport,TX
64533,South Kiara,HI
33415,Lake Victoria,UT
07159,North Alyssa,NM
12598,New Debramouth,HI
83637,Jenniferberg,CA
56019,Jensenmouth,MS
36766,North Peggy,IL
06279,Port David,LA
00965,Bellchester,NC
44220,Kyliebury,NH
17647,Deannabury,MN
84008,Kimberlytown,AL
34836,Jamiehaven,MD
21679,Lake Peter,MT
97655,Port Rachaelbury,GA
58413,Cruzbury,DC
72810,Littleland,MT
92994,West Sarahberg,WA
56558,Valenciashire,MS
74020,Diazburgh,IL
01768,Bestland,IL
15164,New Carlosview,NE
10363,North Sandra,VT
91074,Hunterhaven,NJ
20037,Hendersonfurt,PA
72012,Lake Amandaberg,ME
05223,Christopherland,ID
48894,Port Eric,VT
76851,Peterland,NH
72921,Hollybury,ID
19911,East Christopherchester,FL
56834,South Cherylton,CA
17205,Elizabethburgh,MO
05983,North Jeantown,IA
40905,South Stephanie,MA
48296,Garyberg,OK
05730,Jessicaville,NM
47399,West Lindsayview,NH
28036,West Jennifershire,AZ
89900,South Spencerstad,CO
33207,South Micheleburgh,SD
87917,Ericville,NH
13974,East Joycetown,UT
46858,Port Michellebury,VT
73886,South Michaelberg,ME
53765,Port Austin,RI
81852,Walkerbury,HI
98736,Moonmouth,IA
20758,Margaretshire,RI
31530,Davidton,NE
21800,East Linda,MS
23707,South Caseymouth,TN
54541,Kiaraport,UT
03749,Christophermouth,CT
24010,West Jamesshire,UT
97043,Jodibury,IA
44041,Richardsonfort,GA
54465,Lake Rachel,SC
88307,East Adam,LA
96846,Johnsonside,CA
33028,Cynthiatown,VA
35471,Aaronfurt,IL
21367,Daltonhaven,NM
92418,South Travis,WV
14669,East Jenniferland,DE
50641,East Phyllishaven,CA
05576,Haynesstad,CT
62195,Villegasland,WI
29655,New Dennisfurt,MD
26659,New Ashleychester,NV
60833,East Kelly,KS
46331,Sarafurt,NY
40502,Louisview,NH
30332,North Sherry,CA
29720,Port Kayla,UT
03602,East Danielmouth,WA
87012,Edwardsville,MS
25814,Tamiborough,WA
52728,Parkerview,ID
43526,North Ericport,AZ
37018,East Marymouth,KS
09600,North Jennifer,VT
37086,Randyton,DC
46526,Jorgeburgh,TN
84581,South Melissaside,NH
67269,North Steven,NH
52887,North Alexander,CO
89566,East James,TN
70783,Watsonland,VT
43905,Samanthaland,DC
04118,North Jamesmouth,KY
15619,North Rebecca,GA
34738,Davidmouth,AK
23906,East Sandrachester,CT
76600,Crawfordfurt,LA
35296,Thompsonborough,ND
05515,West Joshua,MO
14709,North Christina,CA
78694,Lake Kenneth,WV
57460,Andradefort,TX
45810,North Joshuaberg,FL
95992,Gonzalezhaven,MI
41615,Lake Virginia,IL
57700,South Kimberlystad,AZ
79958,Stephensfort,TX
67534,Robertahaven,IL
15658,Paulburgh,UT
50989,West Carlatown,SC
76075,Brianfort,NC
25415,Katiebury,TN
33887,North John,TN
06318,West Amanda,CT
93402,Port Wendybury,UT
57655,Kellyburgh,NV
00722,East Brittany,PA
68647,Robintown,AR
71076,Staceyshire,MS
90528,New Stacy,ID
94798,Weaverburgh,MN
97749,Johnsonton,IA
97106,New Jeffery,CO
88401,Smithborough,MT
26326,West Jennifer,AL
48240,Brianberg,ID
57032,Port Daniel,TN
09672,Susanstad,IN
87563,Willismouth,CT
43780,Marcusburgh,TN
82179,Connerfort,VA
41646,Grantside,AZ
87452,Jeffreyshire,NY
16835,South Kurt,MD
94840,Davidtown,OH
39864,Rosalesshire,ID
66970,East Carriebury,IL
41039,South Donaldland,MO
87911,West Toni,DE
54029,Lake Nicole,IL
43254,Port Jennamouth,MI
53244,Smithborough,HI
91885,Lake Carlos,MO
39253,Kristintown,MD
73168,South Samuelchester,MS
17184,South Trevor,NH
25645,Bellfurt,CA
55609,Port Timothyshire,KY
87654,East Shannon,RI
50196,West Andrewview,AZ
89278,North Matthewfurt,IL
98560,Lake Charles,ME
23311,West Brookefort,PA
81177,South Sherriburgh,CT
75094,Mooreville,ND
39947,Jamieborough,OK
53726,Terryside,KS
72320,Donnaport,PA
00554,North Brandon,SC
40330,Hernandezstad,MS
38107,South Christopherfort,WI
28050,North Anthony,DC
56847,Lake Kelly,HI
76520,South Meganport,WV
80017,Ruizview,UT
86314,Lake Amyburgh,TN
42738,Nicolestad,CA
61447,South Bradley,AK
58406,Marshallbury,OR
58455,Anneberg,MS
89056,North Elizabethside,SC
28511,Arellanoshire,IN
67501,New Bruce,OR
62522,Cardenaschester,AL
96964,Armstrongbury,AK
22742,Evansfurt,WV
86857,New Ashleyhaven,DE
11615,North Stacy,IA
37697,Thompsonburgh,NE
68062,Port James,IA
87513,South Christianchester,CO
83461,Port Courtney,DC
81668,Luisland,NM
44434,South Angelaside,ID
12741,Melissahaven,MS
98954,Starktown,SD
31285,Rodriguezberg,IA
88685,New Brianna,PA
41188,North Annaville,WA
29945,Mikaylastad,MA
26601,Bakerfort,KY
19814,Johnsonview,SD
03702,Thomasfurt,WV
06558,South Pamelamouth,NC
32593,North Julie,MT
62778,Pennytown,LA
80621,Lisaport,AK
10046,Juanfort,VA
60193,Port Jeremyport,MA
54822,Schroedermouth,IL
83045,Jessicaland,AR
75955,South Jason,TN
25986,Figueroahaven,TX
94656,Lorihaven,VA
91773,North Larry,PA
50829,Taylorhaven,MS
65300,East Jamesborough,MD
52884,East Antonioton,NV
32480,Janetview,AL
19843,Madisonhaven,NM
86491,Reidville,ID
90629,East Nathanmouth,SC
01227,Port Thomas,IL
98931,Maxview,CO
14471,West Anthonyton,OR
56225,Port Ashley,WY
29184,Port Jeffrey,IA
23554,Lake Jamie,CO
91715,Palmertown,VA
68390,Buckburgh,ME
61390,East Johnnyport,VA
07083,Rodneyfurt,IA
73561,Stephenborough,HI
33163,Turnerhaven,IA
16407,Silvatown,LA
60330,Annaport,NV
17978,Gabriellefort,ID
61402,West Vanessamouth,WY
88001,Joseport,CO
70117,East Zachary,MO
73760,North Linda,GA
78548,Guerreroberg,NV
42089,Lake Tylerport,NY
99493,Rebeccafurt,WA
58509,Doyleshire,WV
80802,West Jessica,WY
94777,Lake Amanda,AK
66663,Knoxstad,MS
56434,Meganside,CO
72311,West Connor,ME
58947,Lake Jonathan,ND
21362,Lake Rachel,OH
97973,East Michaelport,HI
62717,Frenchmouth,MS
59492,Jorgeport,ME
34473,Yorkfort,LA
99037,Port Cynthiashire,OH
32907,South Pamelahaven,NJ
84080,Port Erinhaven,MA
36848,Robertberg,VT
68828,East Matthew,ID
64018,Thomasburgh,ID
82650,South Marvinburgh,AL
31859,Cynthiatown,NY
36493,Hillburgh,VA
58155,South Kristen,NM
10656,East Christinachester,MT
94026,Pattersonfort,WA
37951,Smithside,MS
31236,Lake Nathan,ME
36115,West Katherinehaven,OR
44521,North Erica,MT
42405,East Heather,AZ
71299,Larryville,DE
11062,Gordonport,OK
18637,North Madison,ID
20270,Stacymouth,NE
30812,Ryanberg,WI
50706,Wendyfort,WV
91458,Karenburgh,MI
20529,Smithbury,VT
93092,East Jessica,SC
28544,North Michael,MN
08919,South Nancyview,AR
54878,New Virginiaville,MS
53925,North Hannahchester,WA
43870,Jamesside,IA
71622,Thomasberg,AZ
61570,Lake Gina,MN
54997,West Robertville,VT
08662,Cindyberg,AK
27611,Rivasville,TN
55570,West Danielville,FL
51550,Gonzalezborough,PA
77057,Marieborough,TX
91664,Jadeport,KS
03061,North Amy,PA
75957,Lake Sarah,TN
50358,Jimmytown,GA
63019,North Maryfort,DE
01273,North Kimberly,CO
46606,Lake Jenniferview,VT
39640,South Vanessa,MS
99260,Josephton,VT
51617,Port Greggton,CO
55422,Michaelmouth,ID
71046,Rodgersville,NE
98479,North Melissaburgh,NE
96790,Michaelmouth,UT
72083,Natalieland,NY
79570,Lisaburgh,TN
29407,South Ricardomouth,MS
64494,Maryfort,ME
29261,Banksburgh,MT
36275,East Heatherton,VA
57626,North Robert,CO
64155,Phammouth,SC
04305,New Noah,WI
51469,Cherylberg,MI
44558,Knappville,FL
88171,Alexanderland,WA
89517,Dianatown,WA
53495,Lake Morgan,UT
95420,South Dorothybury,AL
22133,Reedfurt,NM
61762,Port Margaret,CT
17229,North Dawnburgh,WI
82061,Christianburgh,MT
70509,Port Travisbury,MT
04035,Taraton,LA
52146,New Dawn,NE
78081,Montoyaland,HI
74476,Wallaceshire,HI
87401,Millerfort,DC
04053,Stewartfort,NM
11504,North Richardton,NY
84747,Port Christopherport,NV
56680,Lake Emily,IL
18287,Michaelton,ID
61016,Port Shawn,WA
24320,Moranstad,WV
07091,Wilsonbury,KS
34600,West Michaelport,MT
50190,Jacquelineton,SC
43407,South Donald,RI
28243,Rodriguezborough,SC
60099,North Sarah,CO
43341,Lewisborough,CO
44737,Danielchester,DE
50193,Lake Maryshire,CA
36972,Port Patriciamouth,AK
99068,South Adam,IA
55756,New Savannahshire,NM
33566,Glassburgh,WV
11236,Lake Lisa,AL
62145,South Dianemouth,KY
03041,Barnesbury,AL
98677,Raymondmouth,OR
71203,Shawnberg,AZ
07327,South Carrie,IL
46371,Meganside,WY
29890,Jenniferside,MS
85716,East Jason,NC
09494,Glendaberg,KY
85927,New Amy,NJ
05777,Jenniferstad,MA
99359,Aguilarchester,NE
04568,Nataliechester,MN
32912,New Danielfurt,MA
26631,North Ellen,IA
03172,West Karen,TN
81940,West Frances,MS
20474,Port Bryan,AR
31767,Jamesside,MA
17045,West Lisaville,CT
62571,Lake Deborah,NH
88248,Youngport,UT
15494,South Paulmouth,VA
74421,North Juliaborough,DC
29070,Greerstad,PA
61453,Port Jenny,NC
92181,West Shane,UT
34087,East Sydneyhaven,IA
48852,South Billyview,NV
22493,Davidshire,TX
79916,Adammouth,NJ
80094,North Eric,MT
98533,Candiceport,ID
94657,Tylerside,SC
15513,Charlesmouth,MD
21966,East Abigail,SC
41269,South Amy,AZ
14669,Davisbury,WA
76350,Lake Martin,TX
03866,Kellyhaven,IN
41389,Barajastown,NM
75971,Lake Michaelbury,WA
89282,North Felicia,WY
49693,Patrickville,MI
52491,Scottport,NJ
94219,New Lynnstad,UT
26496,Tuckerport,CT
10462,West Willie,MS
78108,East Teresaside,PA
91021,Lake Cameronborough,VT
82714,Houstonborough,NC
32331,Lucasland,OK
13857,North Stephen,VT
91883,Benjaminland,AZ
40030,East Lauraside,NM
90188,New Lorraineview,CO
79198,Hughesfurt,TX
16367,Stewartfurt,NH
74678,New Adamland,NV
05884,Lake Melaniestad,NJ
46009,West Kristinport,ND
70328,West Kathymouth,IA
56649,Fostertown,GA
87207,Moorebury,TN
49072,Lake Peter,CO
09539,Susanberg,NE
66818,Ericastad,AK
85375,New Nancyberg,MD
45226,North Adamfurt,MS
02159,West Jasonstad,KY
55558,South Rebecca,VA
64752,East Jack,TN
14334,Jamesburgh,TN
57323,Port Karenside,TN
47973,Newmanland,ND
83808,Emilyview,VA
60759,East Jessicafort,CO
93209,Michaelbury,UT
20553,West Christineborough,IN
57581,Toddmouth,WI
23587,Heatherberg,CA
96681,Lindseychester,MA
68887,North Lawrence,VT
85757,Lake Jodi,WA
35901,Hillstad,MS
81229,Lake Jessica,SD
71040,Fordstad,OH
63873,Tonyville,NE
61432,Lake Catherine,IN
57592,Micheleberg,KS
96318,West Jessica,LA
78157,Lake Charlestown,DE
35680,Port Bonniefurt,MA
42746,North Andrea,OR
32678,Valdezberg,WA
11860,Philipshire,OK
37060,Dennishaven,DC
59588,South Michaeltown,MD
32464,Port Tamara,OK
98867,Port Willie,AL
61411,Mooreshire,AR
75192,Lake Jessica,ND
80498,Billyfort,MS
88081,North Joseph,MD
50175,North Elizabeth,MN
44593,Paulmouth,TX
04262,North Tinamouth,DC
65290,Lake Tanyaview,TN
43101,Bethshire,OR
24335,South Desiree,CT
64405,Brianaland,AL
28303,Nicholasbury,NH
47008,Gomezstad,FL
34363,Sparkstown,LA
45109,South Gabriel,IN
37156,New Dawnborough,TX
78640,East Eric,FL
92406,Lake Jerrymouth,LA
36712,South Emmafort,WA
73349,New Evan,UT
01831,Johnsonton,PA
68216,New Brittany,ME
25543,Lake William,UT
11722,North Gabriel,KY
32136,New Susan,VT
94882,Lake Jessicaport,NJ
53772,East Shanefort,IL
64539,Jacksonchester,LA
73269,Port Brandi,MS
99875,New Donna,MA
32000,Garymouth,VT
91020,Carlsonland,VA
62903,South Paul,IN
85160,North Jameshaven,WA
93803,Serranoville,WI
64833,South Rachel,NM
59244,Port Amandaville,MO
02761,South Donnaside,TN
12697,Port Erikachester,GA
39067,Woodton,OH
29546,Perezfort,MA
53506,Bellshire,TX
91174,South Dennisfort,MI
32391,Port Christopher,MO
40636,Scotttown,CA
87527,New Alexandrahaven,VA
76726,South Diamondmouth,LA
48869,Coxberg,ID
62532,Pearsonview,OH
73045,Melissachester,CT
70089,Cherylfurt,MD
45557,South Andrea,WY
56272,Whiteside,AR
98272,Kingport,VT
72641,Kimfurt,NH
43858,Port Michelle,GA
46613,Lake Jerryburgh,DC
92625,East Williammouth,UT
59974,East Paultown,LA
36010,Port Dustinchester,FL
40690,North Josestad,IL
33452,New Benjaminfurt,WA
30718,Mendezhaven,WA
16315,Jenniferton,AL
95041,Lake Troy,VA
25743,East Melissahaven,OK
41860,Jameshaven,TX
16171,New Gavin,FL
97871,West Johntown,NE
70737,North Wendy,GA
90962,Gomezfurt,CT
24768,Willishaven,NJ
25606,Lake Janeland,AR
28862,Jessicaside,NY
97311,Michaelview,MA
63965,New Sylvia,NE
36742,Spearsshire,SC
95473,West Gregoryhaven,MO
77779,New Charlesport,AZ
69266,Staceyhaven,IA
78723,Nancyshire,NM
37594,Heatherfurt,UT
13677,Carrillomouth,HI
25944,Maldonadoshire,WA
39330,South Darrenland,WI
30317,Schultzbury,WY
47802,Port Leslie,TN
24020,Zacharytown,WI
40119,Johnland,SD
02355,Nunezmouth,KY
93302,New Sarahfort,SD
70511,Michaelshire,MN
17092,Ianborough,DE
36455,Mclaughlinbury,CO
06466,Port Joseph,NM
07647,East Mary,TN
73030,Ericville,NY
38791,North Emmafort,AK
91912,Port Mercedeston,OK
17052,Watsonmouth,NJ
84107,Villanuevashire,UT
99170,Travishaven,CT
64841,Raymondshire,OR
13947,North Alicia,MS
02108,Mendozaside,SD
75744,New Michaelburgh,NE
37769,Brayhaven,OK
62025,Stewarttown,CT
63247,Lake Jasonshire,CA
58234,West Michaelview,WY
45158,New Jose,HI
24665,Thomasmouth,UT
07235,Ivanchester,MO
33593,South Jaclyn,ND
63117,Michaelfurt,NC
15454,Shannonshire,CA
09065,New Gina,OR
53022,Lake Josephbury,VT
64955,Chaseborough,WY
10211,Port Susan,DE
76132,South Linda,WV
83003,South Victor,TN
90475,Kristenport,DE
07527,Annashire,PA
20388,South Coreyburgh,HI
20056,East Lisafort,OH
74273,South Julieview,MD
40325,Michaelside,AZ
11665,Mauricechester,OK
33031,West Michelleborough,SD
16026,Port Justin,CO
73648,Emilyfort,KS
55049,Prestonfurt,WV
79972,Stevenberg,CO
78636,Lake Lindsey,NY
81558,Robertshire,MN
30082,Sweeneyland,GA
68995,East Matthewmouth,TN
50357,Deniseview,IA
59550,Nelsonmouth,AZ
58529,Juliehaven,WY
39475,Gutierrezburgh,TN
77640,East Jessicaview,NV
56708,East Garrettville,OK
40527,North Sharonfort,UT
75032,North Kellihaven,NC
81900,North Joseberg,MI
08395,Lake Sarahfurt,ND
80406,Jeromeport,IL
97505,Simsberg,CT
13507,North Austin,AZ
27736,Michellemouth,AZ
82488,Mcdonaldside,FL
28160,Amyberg,IL
35188,New Carla,PA
87064,Millsside,IL
11142,Reginafort,MI
21086,Port Christopher,DC
31940,Michaelview,RI
23283,West Alex,CA
72851,West Justin,KS
10339,Lake Sandrafort,MS
21018,Albertchester,GA
00851,Carlatown,NH
54046,Jacobside,KS
59549,Fosterburgh,NE
90858,Claytonbury,FL
78333,Christianbury,IL
62093,Justinside,SC
38676,Robertland,KY
04779,East Keith,UT
30841,Williamsonview,ID
38263,Lopeztown,MN
93163,North Tara,TN
37557,East Teresaport,NY
92642,Davidmouth,GA
60011,East Christophertown,FL
09830,Robinsonchester,WY
90597,Kristifort,MS
31096,Steventon,PA
35176,Christopherberg,CA
82428,West Kimberlyland,DE
77805,Whiteview,DE
87163,Claytonville,OH
26429,South Kelsey,CA
56224,Wrightton,SC
15544,South Jill,MN
71877,New Elizabethborough,MA
29967,Priceport,KY
85387,Ericton,IN
20029,West Timothyport,AL
35317,West Paige,MS
19144,North Joel,MS
09860,Nguyenburgh,WY
08317,Brendafurt,HI
22248,North Tanya,VA
40820,Barkerberg,ME
78494,Kellibury,NM
98668,South Christopher,NC
75108,Sarahton,UT
38329,West Deannaside,LA
58061,East Tonymouth,KY
16800,Lindamouth,CT
61934,North Hannah,AR
90767,Jenniferview,MD
40358,South Jasmineside,MS
92216,Amyfort,MI
53258,New Jacob,WA
36184,Mariomouth,WY
66098,Mikaylaside,OH
71277,North Amanda,MO
65223,Phillipsview,OR
57878,Shawnhaven,KS
11044,Grosstown,TX
78886,Kimberlybury,VT
05725,Jenniferside,TN
57127,Leefort,FL
96777,New Justin,OK
42748,Davidsonville,KY
79630,New Donnaton,VA
33317,East Morgan,MN
03891,North Todd,WI
12471,North Ashleyfurt,TX
30506,Foxshire,MT
88882,Brandonbury,NH
75893,North Sarahborough,NV
77456,Hebertland,NH
03220,Owenton,LA
88618,Angelachester,NE
35826,Lauraton,VT
76030,Allisonland,IN
05774,Christianborough,SC
99626,North Jessicaside,CO
23463,Lopezhaven,MT
62170,New Colleen,MD
68522,New Kara,CO
85895,Reeseshire,CO
58464,Emilychester,VA
36959,East Lauraside,CO
24289,Wagnerburgh,OK
77221,Mahoneymouth,CO
57633,Meganchester,LA
83703,Mckenziemouth,NM
64952,New Amy,AL
12460,Cannonview,TX
62106,Suzannemouth,VA
46108,Smithton,NJ
54024,Caitlinhaven,NY
44188,West Adam,TX
42582,East Melissa,ND
88336,Port Lynnview,DE
14211,North Benjamin,AL
21580,Ericview,ID
43729,Pamelabury,WA
54456,West Lisa,VT
91422,New Ricardoborough,UT
65443,Lake Markfort,WA
38278,South Margaret,IA
87347,New Dawnton,TN
52989,Millerton,NC
72603,Michaelchester,PA
05310,Conradville,PA
60115,Lake Denise,GA
12043,Lake Kimberlyfurt,WV
41725,West Alicemouth,IN
33583,West Wayne,CA
42873,East Brent,DC
15695,Maddoxshire,MI
53477,East Ryanfurt,NE
67950,East Matthew,MS
00651,Duncanton,MN
86701,Bakerfurt,MA
71619,Ayalaberg,TX
61053,South Anita,ND
54666,Fostershire,WI
07605,New Christina,DE
25087,East Charles,ME
68453,Morrisshire,LA
47920,North Emilychester,IL
82110,Michaelmouth,WA
99649,Brittneytown,OK
65839,Garystad,IL
82474,Hansonmouth,SD
58440,Port Jesusstad,AZ
07265,Port Jessica,RI
27181,North Jodibury,NM
35504,Port Marissa,MI
72488,Alexanderville,RI
17673,Shannontown,MA
38253,Jasonside,MI
57925,East Amy,AL
92022,Anaberg,VA
64033,South Brandyhaven,MO
16416,West Georgeport,AL
04284,Port Heather,NE
83079,Briantown,ID
80307,South Donnastad,NC
31866,North Kellyfurt,FL
93533,South William,DE
21259,West Toddside,NM
41231,East Jamesmouth,FL
72700,North Johnhaven,TN
02293,Matthewfurt,IN
72885,North Michael,MO
53977,Michaelport,ME
12718,New Joshua,NE
29952,Lake Jonathanfurt,HI
15372,New Stacybury,KY
60983,West Penny,NV
15897,North Jessica,NV
85397,South John,DC
20682,South Tara,WA
65824,Shaneberg,AL
94427,Lake Dillon,VT
38755,Port Devin,DE
67199,South Wendy,LA
92960,Lake Sarah,DC
36339,West Carlos,MT
54960,East Lonnieberg,MA
63743,Port Lucaschester,AZ
62395,Turnerview,TN
32447,Port Jacob,NJ
60372,East Anthony,KY
72756,Catherinebury,MT
19459,East Grace,OH
50778,Christopherfort,TX
25484,New Meghan,DC
79062,Josephstad,WV
67117,Port Paul,WI
98319,Taylorborough,MO
18393,North Ricky,VA
09651,West Stephaniebury,MS
36709,Port James,DE
54888,South Michelle,WY
45049,Wattsmouth,DC
67051,South Richard,MI
35519,New Jillfurt,AL
00837,Phillipshire,TX
37573,New Danielmouth,AR
95665,East Aprilfurt,MA
39633,New Paulton,PA
77432,West Scott,AL
76512,Kimport,NJ
87000,Jacksonport,LA
64679,Lake Zacharyberg,CO
19977,Gallegosmouth,NE
59030,Lake Vincentburgh,RI
71093,South Robert,VA
63984,Johnsonmouth,HI
45737,South Christopher,KY
44074,Heatherburgh,DE
72841,North Dannymouth,KS
71729,Christopherfurt,IA
49942,South Andrea,NE
60183,Port Georgemouth,NJ
42677,East Misty,WY
25228,Port Jennifer,CT
91923,Parkermouth,VA
31801,Courtneyville,RI
75447,East Adam,ID
50697,Alexanderfort,OR
31114,Stephenstown,SC
54342,Youngshire,IN
06221,Chavezmouth,DC
42205,New Carolbury,AZ
98110,Christineside,ID
62494,North Jack,NE
92936,Lake Michaelberg,RI
50469,Lake Belindaport,CO
51105,Samanthaton,AR
87492,South Victoriaburgh,MT
85962,Cherylshire,ME
20437,South Kara,SC
65424,Sarahland,IN
05353,Marcusfurt,NE
17048,Port Ronaldside,AR
66337,West Thomasville,NE
77857,Markchester,AR
44016,Lake Jason,DE
13655,North Ashleyhaven,MN
58212,South Jenniferport,MI
13570,Lynchmouth,MT
69438,Aliciastad,MD
60391,New Anna,AR
02512,Vasquezburgh,AZ
95193,Lake Kelly,AR
19395,North David,WA
54237,Garrettville,IL
86324,Port Christina,NJ
20733,Gutierrezmouth,PA
10308,Annborough,NE
62038,Lake Jamesport,KS
35238,Kristyport,MN
44876,Williammouth,ME
82192,North Ginamouth,CT
91295,Ramseytown,AL
52599,East Mark,OH
85676,Sandrafort,DC
11028,Roblesberg,MN
43566,Mooremouth,MN
88890,Stevenchester,WI
70443,Port Adrianashire,NC
50309,Angelatown,MN
42006,New Gina,SD
82656,Carlberg,IL
94704,Marymouth,MS
64457,Simsburgh,CT
71413,Lopezville,SC
05206,Janetmouth,PA
81432,West Robertfort,AZ
09469,West Shannon,SD
31272,Javierport,ID
83228,North Neil,VT
90206,Port Jamesland,CT
38168,Hunterfort,ND
30318,East Matthew,MA
98381,Oconnorhaven,VA
12347,Kimberlyberg,WV
57382,Port Tonihaven,ND
13404,East Jenny,FL
83567,Hugheshaven,DC
92761,North Larryton,MT
13674,West Steventon,VT
58654,New Katieport,WV
22306,New Katherineborough,OH
91465,Jamesport,MN
39752,Amandamouth,SC
04295,West Edwardview,DE
06529,North Susanside,NE
43017,East Amyside,NJ
07856,Josephport,NC
38953,East Charles,WY
47485,Amberton,GA
49632,North Thomas,KY
56951,North Patrickland,DC
19581,Myersshire,AZ
32508,Jensenport,AR
70122,Lisaside,UT
54509,Port Kathyshire,WA
74678,North Lisa,MO
89865,Davisport,TX
24101,Ruizbury,NY
22781,Port Paula,GA
23447,Robertafurt,WV
10851,Lake Samantha,MS
80388,Kristinamouth,WI
50641,Freemanland,MO
81727,Rodriguezfort,KY
90040,Singletonport,HI
32067,Cassandraberg,GA
65731,South Lisaville,IL
76936,Angelaland,UT
19259,Amandafurt,WY
30934,Allenbury,NH
60944,South Patrick,VT
84112,Jaredshire,NC
33790,Muellerchester,ME
60737,Amybury,IN
33967,Lake Elizabeth,VT
87905,Wilsonmouth,OH
01732,Angelamouth,GA
61482,West Stephanie,AZ
38201,New Danielfurt,IA
89316,Troyton,AZ
72144,East Lisashire,FL
21207,Port Dwayneberg,KY
10182,Schmidtfurt,KY
58399,Gonzalezmouth,WY
45794,Ashleyport,SD
77515,Robbinsstad,IL
39711,New Alanhaven,DE
84247,Abbottport,SD
56116,West Rachelton,SC
90981,Lake Annstad,MN
33281,Port Juliantown,CO
60379,South Jacqueline,OH
40100,Garrettfurt,VA
26612,Jamesside,MT
50923,Lake Glenn,RI
63836,East Angela,MD
14480,Maryberg,SC
31592,Whitneyberg,AL
50487,North Charles,MI
75464,East Jenniferfort,VA
47550,Proctorberg,HI
75842,East Dawnchester,AK
39281,Englishchester,TN
92156,South William,WI
39197,Cruzbury,OR
03376,South Cassandra,VA
86776,Bradfordbury,UT
52380,Robertside,SD
36477,Arthurton,SC
01562,Bushville,PA
74678,Nixonland,IL
90390,Lake Jessica,NV
98106,Stevenland,MD
06929,East Thomasland,IL
79983,Chloemouth,SC
98172,South Shawnfort,WV
65608,Robertport,FL
38013,Garyport,IN
30663,Bryanfort,VA
80070,New Brett,MN
46680,Lisatown,NJ
29206,Toddberg,NM
83943,Port Kristenview,NH
25421,New Juan,HI
81882,Alexisville,OK
33351,New Joanne,VA
89336,Woodburgh,SD
99536,Kimberlybury,AK
94994,Whitehaven,GA
86901,West Traceyberg,HI
89742,Port Tyler,MO
18428,Townsendbury,PA
82846,Barberburgh,CA
13236,New Jessica,CA
82743,Brianview,IA
85218,North Garyfurt,SD
05668,Turnerside,CT
40993,South Frances,NC
58280,Wellsberg,VA
04874,Smithmouth,AL
76466,Gregoryhaven,CT
48324,North Samanthastad,MS
96492,Bishopview,DE
17725,Josephville,AL
12314,Destinyfurt,SD
39181,Mejiabury,DC
43324,New Matthew,WI
98474,West Amy,KY
54961,Port Carloschester,SC
23522,New Daltonmouth,AL
26819,Jeffreyport,AL
17823,Jamestown,CT
71202,North Sheenaborough,WA
48454,Lake Susanland,MA
70080,South Diana,VT
66272,North Heather,ID
36221,Kennethland,NJ
22068,Livingstonview,OK
34182,Schwartzmouth,NV
63657,Fernandoland,GA
39185,Kimberlyfurt,MA
98354,Cookton,FL
44897,Stephanieview,AR
15596,South Chad,UT
61886,New Philip,SC
10370,Rodriguezside,DE
18950,Robinsonville,AZ
99349,Baldwinville,ND
30072,North Chadview,CT
89148,Smithfort,MT
95425,Lake Danielle,AL
88896,Lake Peterberg,IN
52590,Rebeccashire,IN
73549,New Jasminefort,MS
48443,Grahamland,MI
12337,North Patrick,LA
52218,Martinezside,TX
02325,Mathewport,TX
35164,Brownland,VT
70830,Amandamouth,DE
16700,Port Steveport,GA
60110,East Angela,IN
48812,Guerreroport,LA
88689,Mosleystad,CA
98675,Millermouth,MA
88626,East Austin,MN
34863,Lake Wendybury,CO
77120,Priceside,AZ
50442,Victormouth,FL
84196,North Matthewmouth,NE
49190,South Davidhaven,MA
14702,Bentleyside,HI
88953,Lake Beth,NE
31148,North Jillfort,TN
62298,South Rebeccaton,ME
03781,Lake Deborah,LA
81706,East Cynthiaport,CT
74085,South Cherylshire,NM
43493,Port Lisaville,MN
80465,Larsonbury,VT
29516,Port Jamesmouth,CA
85390,Nguyenshire,AL
08786,West Mary,FL
83784,Port Brandon,SD
61353,West Bryan,MD
92392,Donaldchester,MS
40109,Lake Mitchell,VA
85598,South John,WY
54017,East Craigfurt,CA
15793,North Nichole,OK
18821,North Adrianland,VA
06444,Robertfort,FL
05378,East Douglas,MD
40394,Alexandrachester,HI
65070,East Cheryl,MS
15721,New Hectorfort,MD
13240,Lake Margaretport,NE
31276,Robertside,UT
70958,East David,PA
18282,New Michaelside,SC
51441,South Kaylee,DC
59960,West Brian,SD
49130,Port Edwardfort,IA
88382,Thompsonton,MT
97905,Lake Michaelborough,NM
91790,Kingmouth,ND
71305,North Joyside,ND
55436,East Kristen,IN
77484,Robertsonland,CO
97791,Lake Sean,VT
95737,Robertmouth,NC
20754,Port Daniel,WI
54880,North Joel,WA
86342,Kanefurt,UT
13479,North Thomas,IA
64640,Brownchester,AL
81195,East Sarah,AK
53993,Thompsonstad,OH
37167,South Jennifer,DC
04789,Theresaborough,DE
90977,Davidshire,MI
49067,West Derekmouth,WI
28978,Barnesmouth,DC
58616,West Cassandra,NH
58788,New Tara,OH
31448,North Robert,MT
48038,Atkinsborough,IL
13523,Hoodview,IN
90374,Lake Ronniebury,WA
48648,West Ryan,DE
71865,New Sophia,VT
85019,South Tinaton,MS
47513,Quinnhaven,AK
08437,South Amandafort,NE
52685,South Tylerland,AR
36661,Lake Jessicaborough,CT
25379,West Kenneth,OR
16512,North Timothyport,NJ
60101,Lake Stephen,PA
12516,South Stevenberg,GA
87371,Lopezstad,FL
28302,Padillatown,FL
84610,South Patriciamouth,IA
84320,West Ronaldview,AL
78770,Port Gail,MT
03300,Jillton,WV
07130,Pamelaville,NJ
44214,Diazton,DC
32426,Michaelside,NC
17006,New Jennaborough,ME
74501,West John,MT
27397,Lake Timothyshire,MA
09493,Port Julie,WY
73142,West Michael,UT
27653,Wesleychester,LA
77359,Brianstad,FL
28806,Shaunhaven,SD
31040,South Jenniferside,PA
43565,Shannonstad,HI
19841,East Patriciamouth,GA
78617,North Peterburgh,MO
00872,Susanland,NE
36843,East Joshuaberg,NH
19465,Hernandezborough,VT
17539,West Robertside,KS
71308,South Michael,OK
33354,Rojastown,ME
23372,Jaimetown,IN
14909,Port Stacey,GA
87147,Robertmouth,CO
03880,Toddhaven,MS
17776,Ellisshire,WA
02448,Port Kirk,MO
47456,Jeremystad,AR
31687,Kaylaton,MO
77683,West Justin,WA
42938,New Sandra,PA
02569,Ianburgh,CA
23339,East John,UT
35283,West Autumnmouth,NJ
07369,Mikeborough,SD
17115,Lake Loganstad,MO
97719,West Shane,MS
55677,New Kevin,AR
69456,South Sarahberg,MN
15397,Reillyberg,NE
98236,Lake Amyhaven,KY
08831,Deborahport,CT
62923,Kempshire,MN
59257,Port Annette,WI
47954,Morganville,MA
67772,Mcculloughberg,IA
78313,West Angelbury,GA
14794,Howardmouth,CT
59746,New Danielleshire,IL
66540,Port Shari,AL
29539,Jamesland,ME
81124,Rhodesland,OH
06184,Leemouth,SC
95822,Lake Michaelberg,IA
86864,Woodstad,CO
68848,West Michaelport,OK
40036,Sawyerland,OK
60537,Lake Pamela,NJ
84824,Laraport,AR
04583,Port Jessica,CO
08473,Chandlerchester,AL
63282,Port Brenda,WV
53141,East Jaredfort,MO
56373,Carlshire,ID
90429,Davischester,WV
14651,Robertside,VA
64761,Pageberg,DC
93876,East Marisa,TX
58639,Angelaton,MA
10133,Maryport,WA
11090,Hansenmouth,CT
42720,North Kylie,WI
80231,West Kevin,AK
19943,Martinezport,WY
09110,Whitebury,NJ
17041,North Kathyfort,AZ
36547,New Julieshire,GA
82331,Cunninghamview,TX
83479,Mccannville,CO
77225,Williamshire,SC
72375,Port Jordanshire,VT
93844,East Luisberg,IL
43123,Frankview,TX
50426,Robertstad,FL
78802,West Kellyland,VT
70042,Port Courtney,NY
39153,New Karenside,VA
59970,Moniqueport,SD
66764,Ginastad,WI
79855,New Bettyberg,NV
56888,East Aprilstad,DC
13500,Jenkinsburgh,LA
92484,East Ericbury,RI
15497,Port Penny,NE
86315,South Stevenland,VT
85817,Port Davidtown,TX
72765,Baileystad,IA
94982,Port Scott,RI
28684,Geraldport,CA
56871,Lake Lisabury,OK
59687,Port Heather,NM
30450,West David,AL
54740,North Roger,WI
44925,North Andrewfort,ME
59942,Williamsville,WY
52763,Port Donnashire,CO
55025,South Davidview,CT
96132,North Kevintown,MD
12964,Port Davidborough,LA
41467,East Ellen,CA
56437,North Dustinview,OK
41464,Michaelhaven,MI
87678,New Ashley,CA
33909,Port Belindatown,VT
49561,Lake James,NH
20507,Georgeside,NJ
90524,Lake Coreyborough,WV
62664,Richardsonshire,NV
09300,South Emily,DC
12458,East Maryfurt,OK
11689,Lewisbury,AZ
12720,Rodriguezmouth,LA
57107,South Danielberg,MT
13157,Farmerport,RI
98095,North Markville,TX
97336,Campbellport,NV
49344,Perezchester,NY
17555,Tracichester,RI
73425,Port Chad,MN
08362,Crosbystad,TX
77370,North Yolanda,NY
74109,Powersfurt,KS
74121,Millsland,TX
43708,East Ralphshire,RI
88320,Lake Saraburgh,AR
16522,West Theresamouth,WY
54346,New Megan,UT
46847,Martinezchester,OH
87708,Ramirezshire,FL
98842,Katelynfurt,CT
55936,Thomasfurt,MS
95011,Dixonberg,OK
07244,Rodriguezview,CA
38201,Crawfordberg,MS
79197,North Joanland,NH
41454,Gregoryburgh,CO
46591,Jacobsmouth,NH
14080,West Christy,SD
76249,Port Charleshaven,NH
67008,Sparksborough,CO
28385,Ebonyfort,VA
20781,Amyside,MO
86580,Port Anthonychester,NE
63702,South Shannonfurt,MO
29893,Stevenston,CA
14685,New Donna,MA
46391,Nicoleburgh,NM
73411,Jordanport,UT
48677,Freemanville,NJ
15559,Kellerside,KY
37013,Alvarezburgh,AZ
75749,South Joseshire,FL
30144,Jensenstad,FL
56745,Luketown,IL
74027,East Marystad,OK
81991,Port Patriciamouth,PA
80923,Davisstad,MS
88971,Robertton,MN
84740,East Jimmy,NE
73473,Brittanyland,IL
03942,Dannyburgh,IL
80323,New Markmouth,AK
86724,Bradleychester,TX
91395,Andrewfort,KY
35555,West Nicholasfurt,SC
04295,Ashleyfort,CO
24148,Lake Emilymouth,CA
36319,Shawmouth,MO
92605,New Kevin,ME
41000,Harrisland,VT
45042,West Joseph,MT
46510,Wendyfurt,IL
01301,New Julia,KS
24278,Lake Meganville,AR
19277,Joshuashire,NE
74729,Simmonsstad,WV
86660,Lake Madisonhaven,GA
53032,Ryanside,MI
09621,Jamesfurt,NJ
19096,Colleenmouth,ND
97621,North Courtney,WY
83492,New Victor,UT
04519,Adamsside,MI
12527,Michaelton,UT
98295,West Steven,MS
70032,East Julie,AL
28698,Meganchester,WY
49809,Michelleland,PA
55529,Port Robert,CA
59961,Debbieview,TN
45182,South John,RI
21132,East Anthony,MD
49004,Stevenside,VA
41347,Hendersonton,WA
95082,East Joseph,MD
43018,West Kristineview,FL
74896,Lake Melissa,NH
78649,Caseyton,NM
11636,West Carolynland,MD
07396,Mosleyland,WY
20893,Hahnberg,MT
21133,North Ashley,NC
99386,New Elizabethshire,AL
81482,Tylerland,DC
07023,New David,NV
88839,Markshire,OR
11194,Shafferbury,AZ
36166,Robinsonville,WA
58580,East Tara,MT
87262,Ortizshire,ND
56077,South Amandaville,GA
64157,Amyfort,MS
80071,West Natasha,MI
58440,West Thomas,ID
54788,Loritown,OK
36305,Port Joditon,MN
28756,West Angela,MN
99452,Daniellestad,ME
67655,New Michellemouth,ME
15419,Smithfurt,DE
45743,Kevinbury,NM
56850,Jasonburgh,NH
15035,Welchchester,MT
37626,West Michellefort,MI
89396,Mclaughlinmouth,ND
89431,Mcdowellville,NC
78244,Lake Jose,MA
64284,West Robertside,HI
69567,Shawntown,NE
87943,Lake Darlenemouth,HI
40926,North Richard,PA
06453,Leeland,ND
29404,East Johnberg,MS
52308,Sparksmouth,TN
79055,Mendozaberg,TX
07681,Glennshire,SC
01508,Laurenborough,UT
27295,South Michaelfurt,CT
40008,Duffyshire,CT
28187,North Stacy,SD
18488,North Terri,RI
33992,West Jacqueline,CT
38439,North Richard,WA
43508,Burkeberg,RI
16227,West Georgeshire,CT
01514,North Jenniferchester,NV
65694,Wilcoxfort,OR
98413,East Jenniferborough,AZ
56947,Keithfort,LA
23529,Andersonborough,MT
17433,Port Justin,IN
50335,South Henry,NH
70307,North Kelly,MS
92732,Joemouth,ID
30662,West Brandi,NJ
66071,Millerfort,MI
73734,Port Marcus,NH
88063,Mcdanielfurt,SD
46922,Fitzgeraldview,WY
09948,North Angelaton,MO
52545,Sarahfort,MN
97761,Wendyton,IN
06045,West Williamfurt,LA
57677,Tiffanystad,TN
02957,New Blake,ME
60761,West Geoffrey,WY
10706,Conradmouth,MT
41534,North Logan,IA
75966,Thomasville,MT
56768,Bradleyberg,AL
75657,Savageview,FL
53509,Saraport,MN
93496,Chloeview,NC
84405,Ryanburgh,WA
55248,Jillianfort,MD
38448,New Melissa,GA
15597,Brownberg,NE
53589,East Isaacfort,OH
03234,Frankmouth,ID
43069,Wilsonfort,SD
23028,South Michaelside,AR
81519,Ellisville,OK
60806,North Michael,DC
90889,Port Justin,MS
47929,Lake William,HI
12052,Annashire,MD
57741,New Whitney,GA
14376,New Katieburgh,IN
32392,Knappbury,VT
57605,Rhodesmouth,DC
77685,West Erinville,DE
52988,Brooksville,OK
69177,Ericland,MO
10809,Rivasfort,WV
52374,Fullerview,KS
41169,West Taramouth,OH
98255,Staceyshire,MD
45001,East Michelle,CO
29542,Marcuston,AK
44156,New Stephaniefurt,AL
22538,South Jonathanbury,WI
10512,Davisborough,FL
67411,South Kimberly,RI
83499,Deborahberg,ND
15446,West Travischester,CO
70048,Rebeccaberg,MS
67341,Elizabethstad,WA
25916,South Sean,DC
46294,Alvarezshire,SC
46520,Davischester,WI
95840,Christinachester,HI
85100,Davishaven,SD
19859,Teresabury,IN
31469,South Alison,ID
13975,West Taylorland,IA
19695,Evansberg,WI
34051,Mckenziehaven,WY
26357,Phillipston,WI
23241,North Williamhaven,TN
79458,Gutierrezmouth,KY
20537,Michaelshire,FL
86419,Port Wesleyville,AK
10377,Whiteburgh,OR
23719,Williamschester,CT
82807,Leemouth,NH
65265,Hansonview,DE
61312,Tammyburgh,FL
99387,East Christian,KS
74390,Monicaville,HI
76453,Fergusontown,CA
59339,Wilsonburgh,MN
89778,Stevensfurt,IL
74490,Turnerstad,CT
84779,Ballardland,WY
83770,East Alexander,MT
82358,Port Allenborough,NM
42864,East Timothyberg,CA
82711,South Megan,TX
41937,North Kevin,MS
20287,Hernandezchester,MD
58141,North Gabrielberg,NV
09451,Maynardfort,GA
61963,Port Shannonbury,ME
58462,West Ashley,HI
83257,Williamstown,OK
40192,Lake Melaniechester,PA
36503,Allisonshire,AZ
78019,Benjaminfurt,MA
07863,Palmerfort,NJ
46630,Lake Bruce,PA
66998,South Barbaraside,AL
10225,West Patriciachester,NC
41186,Wilsonstad,KS
61022,Terrytown,ID
59734,West Jessica,AK
05430,Cooperbury,AK
07957,New Regina,NY
48832,Sandramouth,FL
38128,West Jennifer,MN
10558,Moyerstad,IL
84998,Marshburgh,MD
12336,West Hannah,IN
81111,Lake Timothyburgh,VA
78368,East Catherine,DC
66963,Port Robertfort,KY
50895,Jimmyside,ID
61149,North Michaelview,MI
76565,Ericaburgh,OH
73156,Port Brycechester,LA
97352,New Jeremyside,WA
05877,South Jonathan,NM
59448,Kristenton,NY
75429,Paulahaven,ID
85938,Lake Brentmouth,HI
25173,Estesville,TX
42644,Port Cherylville,VT
79800,New Danielville,MO
62842,West Eric,OR
66216,Jeanhaven,WI
20274,Oconnorville,ME
08610,Lake Michael,WY
59551,North Melinda,VA
14067,Montestown,NE
45516,Port Lisa,NV
94127,Justinburgh,PA
11554,West Nathanchester,KY
66633,Crystalbury,MD
85190,Port Karen,CT
23118,Cobbberg,MS
05631,Gutierrezchester,ID
32973,Cranehaven,MI
93250,Sherrymouth,SC
57878,Port Alejandro,CA
58096,North Matthewfurt,GA
69191,South Bryan,AZ
69018,Lake Sandraberg,KS
80429,Lake Tinahaven,MT
21308,Robertside,PA
48197,Jennifermouth,SD
49371,Alanview,MI
37580,Lake Richard,AK
51280,New Claudia,HI
54079,Terryfurt,MD
44851,West Christopher,WY
89485,Peterberg,MI
78867,Jasonhaven,CA
07364,Adrienneburgh,TN
83192,North Pamelaside,MN
85344,Johnport,WI
44364,Benitezville,DE
09140,Port Nathanhaven,MD
43714,Davidville,AL
12888,Evanstown,MA
73634,Morganbury,NH
89417,West Kevin,WY
51168,Lake Nicholas,IN
37744,North Mark,CA
33530,Port Kimberly,LA
95362,Garciachester,IL
86558,Millerton,IL
79498,Beasleyfort,OH
20210,South Christian,VT
44195,Chapmanhaven,TN
11183,Wigginsshire,OK
76881,Fieldsmouth,SD
87481,Dennischester,TX
19038,East William,NE
46352,Dawsonberg,MD
41163,Lake Jasonfort,ID
86491,Lake Ericside,NM
92052,Sandraville,AZ
87288,Rodriguezstad,MT
51875,Billyberg,DE
17402,West Kevinstad,GA
78494,Kellytown,MD
93409,East Kristen,MS
11605,Williamsport,OK
41078,Jasonfort,LA
73760,North Amyland,SD
49873,South Timothyport,OK
84844,Mcculloughfurt,NH
43555,Davenportberg,DC
17251,New Dana,MO
88334,Contrerasberg,ND
92622,Christopherchester,NC
97333,Hallfurt,MA
90339,Ambermouth,AK
69496,Debbieburgh,NJ
12750,New Crystalport,MT
85176,Lake Anitaborough,ME
88379,New Aimeefort,MD
55997,North Dominiqueside,MI
67149,North Joshua,CO
47926,East Maria,WI
02890,Millerside,NM
48027,Richardton,AR
52055,Arianamouth,NJ
39618,North Joyhaven,ID
91787,Lake Jamieberg,DC
60083,Taylorberg,CA
65163,Courtneytown,AK
84530,Hansonborough,OK
16414,North Aaronville,NH
49509,East Jamesfort,TX
81500,Port Williamfurt,NV
13967,North Kevinfort,WY
04339,Port Jimmy,NH
29863,Lorrainemouth,SD
06770,South Dustintown,PA
01863,East Lori,MA
18685,East William,GA
14281,South Timothy,NH
42818,Elizabethshire,CA
90625,Richardsonview,WA
95430,Cruzville,TX
57606,Butlerchester,MT
30168,North Justin,NC
22808,New Pedroshire,MS
12037,Austinmouth,WY
25556,West Sydneymouth,KS
95411,Hillburgh,VT
48850,Vincenthaven,DE
70959,West Rachel,WI
01148,Palmerburgh,SD
90710,West Diana,VT
07381,Stephenberg,NV
34538,Kristenport,VA
06147,Jonesfort,LA
15024,Estesburgh,MO
06792,Davidmouth,VA
40384,Breannafurt,AZ
10336,North Anthonyburgh,MO
35068,North Elizabeth,NY
43666,Villafort,SD
90668,Kathleenbury,NE
80815,East Jessicafurt,DE
50250,Nielsenton,FL
35878,Dannyland,KS
92076,Hinestown,OR
22827,West Daniel,WY
18557,Grayshire,VA
76975,East Johnny,MN
60885,Sheltonbury,TN
16216,Lake Fernando,FL
17053,North Brandi,IA
42356,East Arthurberg,NJ
19899,West Kimshire,KS
99202,West Jacobhaven,MA
77064,Leeborough,UT
54672,Masonstad,NH
83981,Port Carlos,VT
59061,Garrettland,WV
88087,East Kimberlyport,WV
16540,North Victorton,MA
68889,Andrewport,UT
69653,Peterstad,MA
32026,Port Monicaport,NV
76245,New Barbarahaven,KS
63143,Reginaldton,KY
87174,New Thomasview,AZ
64739,North Matthewview,DC
37272,West Pamela,NC
42694,East Jamesmouth,AK
96296,East Trevorshire,MN
63770,West Tinachester,MN
30101,New Timothyberg,LA
12533,Jenniferville,VT
35079,South Williamstad,OK
39329,Woodsbury,ME
93743,North Anthonyborough,VT
11353,Flemingtown,TX
46770,Williamsfurt,FL
73706,South Jacqueline,UT
32269,North Samuel,FL
86940,Michaelmouth,LA
85322,Hullbury,MS
96874,North Brianna,SC
27487,South Julie,AK
91591,Port Alexisbury,IL
10726,North Brianmouth,ME
10350,West Bradley,OR
65329,Carriebury,KS
08400,Davidfurt,VA
28350,Sandovalland,WA
02221,West Shawnaborough,NC
88384,Thorntonstad,NJ
28830,South Jennifer,GA
61862,Kimberlyport,SD
50971,New Patricia,OR
25131,Heidihaven,NY
64417,North Michaelchester,NC
14202,Ramirezborough,MS
45124,Port Theresa,NM
27850,West Judy,GA
77902,North Nathan,NC
69660,North Tiffany,HI
67862,Santosmouth,MS
41573,North Victorton,TN
41372,Joshuafurt,MA
93367,Margaretland,ME
60010,West Melissafurt,IN
86391,Smithfurt,KY
20685,Wallacebury,WI
66628,South Jack,WY
14350,Patelport,SD
17548,New Kathryntown,MI
29177,Sandraview,NH
48164,Port Anthony,SC
51039,Glennton,AL
59802,New Paulport,WA
81828,Colemanshire,WY
67801,Franciscofurt,NC
27111,Reesebury,IN
52956,North Juan,ID
25136,Christopherbury,TN
09497,Matthewfurt,MO
36917,New Joshuaview,CT
55956,Kimberlytown,NY
22022,West Ashleymouth,KY
90451,Melaniemouth,ND
40759,Smithtown,WA
76161,Johnsonstad,CO
85485,Littleside,AR
13878,South Brian,OK
19806,West Pennyside,IA
60919,Stephaniemouth,KS
14548,West Katie,WA
98153,Jordanfort,UT
14945,East Crystal,IA
32032,Port Christine,UT
02675,East Dannyton,NH
60905,Lake William,AZ
25015,Rileyton,KY
35465,North Stephanie,KY
04247,Theresatown,WA
62922,Amberton,VA
87255,West Daniel,CA
70085,Wilsonland,DC
59829,East Mark,ME
46632,Mariachester,IL
35310,Lake Ronaldport,IA
16010,North Mark,WV
72630,Matthewchester,NJ
11519,Thomasport,CT
46956,East Michealport,WY
57055,New Anthony,MD
28296,Port Lawrence,SC
20243,Shelbyfurt,ID
52527,Lake Jessicafurt,DE
66324,North Susanbury,CO
56973,Ryanville,ID
67075,New Thomashaven,ND
44244,Stewartborough,IL
07468,Rhondamouth,NM
58348,Port Katrina,OK
36229,Jerrymouth,OR
48968,Lake Johnchester,DE
13321,Christopherside,NV
06941,West Denisebury,SD
85517,Hartmanbury,OR
50638,New John,SC
96445,Craigberg,WV
55890,Lauramouth,AL
25920,Davidchester,WV
39036,Wagnerberg,PA
25332,Chenborough,NM
53282,South Alexis,HI
23654,South Joseside,NY
78364,Newtonberg,NY
36667,Port Ryanburgh,SD
69911,East Zacharyhaven,KS
80120,Strongstad,ND
65200,South Heidi,MA
68477,Lake Kelly,TX
57329,Phyllismouth,NY
14812,Lake Brandonstad,SC
89782,Lozanomouth,DE
07037,Robertsfort,HI
85218,Lake Isaac,AL
33130,East Paulashire,NY
15060,Emilymouth,NM
29281,Floresburgh,HI
15598,Shirleyville,WV
07465,West Trevor,TX
05178,New Zacharyhaven,CT
75897,Mitchellfurt,NV
35389,Katherineberg,SC
31796,Port Sierraborough,ND
09131,Stoneshire,HI
70248,Coryport,WI
13743,North Keith,WV
36606,Gonzalesburgh,IL
30184,Sheilaview,NY
81794,East Elizabethberg,MD
92187,East Andreahaven,NC
94325,North Carmen,CT
53527,New Amandaborough,ME
51869,South Marissatown,IL
51997,Jamesshire,TX
13779,Dennishaven,MD
29322,Port Shawn,ID
96697,Lake Jasmineville,MO
91161,Onealfort,GA
35663,Christopherberg,GA
65404,Jessicaville,TN
27463,Lindabury,MD
22918,West Ericmouth,NJ
27184,Shawnhaven,PA
46065,Lake Haileyton,MT
83980,Garciahaven,VA
38248,Jamesside,IN
93018,Lake Courtneybury,NJ
78660,New Nicholas,ME
38246,Lake James,FL
96692,Hernandezburgh,MA
00908,Campbellborough,MI
12853,New Mercedesborough,WA
24759,South Carlosside,NV
66461,Lake Gregory,NE
92313,Wattsfurt,MO
82043,Lake Michael,MT
62990,West Mary,WV
97375,Elizabethfort,AR
40520,Harperside,MI
90670,Phillipsbury,DC
31777,Port Kathrynchester,WI
22813,Nguyenchester,AK
41803,East Stevenmouth,VT
89819,West Heidiberg,IL
09604,Larsenfort,VT
22343,Mcdanieltown,LA
25056,Josephborough,MN
44037,Brownmouth,MD
60167,Emilychester,WY
19091,Lambchester,MD
02170,Greenton,OH
87799,Toddbury,ID
62707,Daisyton,IL
56589,Sethbury,NY
44286,New Jamie,KY
03230,New Cherylberg,CA
23768,Lake Andrewfurt,GA
35082,Port Janetstad,VA
10590,Lake Brandonborough,VA
22878,Amandaburgh,NJ
89525,Heathbury,WI
01776,Lauriestad,MS
78358,Robertside,VT
46657,North Barry,IA
62606,Port Shelbyville,PA
76936,Moodyton,MS
00632,West Kevin,CT
64504,Lake Kelsey,SC
32942,North Joseph,KY
62441,Port Kristenfurt,MN
14838,Port Joy,LA
06422,Michelleland,NJ
02780,New Jenniferchester,WA
74853,North Juliaside,MD
89636,North Jill,VA
38598,Leeport,FL
30423,Ronaldtown,FL
69349,Joshuaborough,ME
66449,West Tanyashire,ID
22429,Bennettchester,CO
99459,East Tammyside,IA
19713,Timothyside,OK
12809,South Andre,WV
13607,Lunastad,KS
40425,South Jeffreytown,NC
96994,Wisemouth,LA
44498,Thomasville,AK
59826,Martinland,WI
64813,New Garyfort,CA
96814,North Donald,WY
46478,Millsshire,VT
72028,North Katrina,MD
34231,Robertmouth,MN
87455,North Marc,WI
64266,Savageview,WA
33732,Port Anna,IL
48249,Gardnermouth,MD
60630,West Steven,IN
02278,Robertsonland,MN
46720,South Hollyfurt,ID
39971,Port Alexander,VT
93582,East Jamesville,KS
44244,South Tylerhaven,WA
68374,Taylorside,DC
87524,Rossport,SD
78586,South Wendyview,NE
63986,Christinastad,NM
15280,East Kelly,AR
35882,Port Christina,NC
90388,Aprilview,NY
68567,Fordmouth,AK
95949,East Alice,NE
84360,Smithchester,NY
03217,East Thomas,MD
19886,West Jacquelineborough,ND
54282,New Stephenville,LA
29370,New Taylorburgh,MA
86925,West Danabury,CA
19065,Courtneyborough,CA
47319,Justinchester,CO
65752,Michaelfurt,WI
04551,Annborough,ND
32530,New Elijahborough,NY
76206,Gregoryshire,CO
97626,East Laurashire,NH
91701,Riverashire,SD
56956,Tammyfort,WV
47610,East Aaron,WI
27542,East Christopher,NE
98066,East Fred,KY
12202,West Christianton,NV
25908,New Lindsay,WA
50017,Ortegamouth,SD
84221,Vincentville,CA
14647,New Phillip,SD
36404,Mccarthystad,MA
82668,Marymouth,NC
89472,New Meganburgh,UT
71924,Jenniferchester,NE
59387,Henryview,AK
69563,New Rachelstad,OK
23432,North Michelle,AL
35275,Townsendstad,MS
89507,Lewisside,AL
46224,South Neil,MD
43911,East Scotthaven,FL
51753,North Brenda,IN
77721,Clintonstad,TX
55196,Wesleytown,MD
36709,Arthurview,NH
41044,Sandersview,TN
25479,Colleenshire,WI
05888,Port Jenniferfort,OK
76459,Henryfort,VT
68668,North Mikeberg,OK
92492,Port Melissa,ID
45494,South Maryville,FL
80765,South Danaton,ME
16617,Connorside,CT
57315,Tonyaborough,ND
60142,West Marymouth,AZ
74774,New Jennifer,DC
45982,Zacharyfurt,MI
38303,Monroeton,MD
14943,East Mandyhaven,MD
01593,Lake Joseph,TN
65896,South Bradley,ID
90354,Lake William,GA
19785,Lake Julie,KY
61622,West Joshuastad,IL
89750,West Stevenland,MI
20191,Davisland,DC
69076,Lake Christopher,NV
38483,Brittanytown,MS
82263,Port Alex,NV
73657,Stevenbury,WA
87574,Maryborough,WA
21814,West Brian,MS
40300,Gregoryberg,NV
64310,Robertborough,MO
38283,Nicoleburgh,IL
08970,Jordanmouth,MS
39131,Christopherstad,DE
02544,Michaelhaven,HI
59989,Gallegosburgh,OR
05868,Port Brendaberg,NC
28986,Lake Ryan,GA
37596,Jaredhaven,IL
78236,Christopherborough,NM
16679,Jefferyview,PA
07473,North Zacharyburgh,WA
64512,Taylorshire,MT
40585,Nathanfurt,IL
01168,West Jacquelinestad,NY
56904,East Robertmouth,NJ
46671,Deborahville,NY
87041,West Kevin,NH
00585,Paynetown,AL
07041,Lambmouth,MT
33456,Simonfort,CT
18552,West Jennifer,MN
46404,Timothyfurt,CA
37629,Billybury,SD
66298,South Ronaldview,IN
87706,Watkinsburgh,CO
73999,West Olivia,SD
20822,New Karen,MS
11773,Lake Mason,NJ
93981,North Kyleberg,KY
35978,Stephenburgh,SD
19197,Smithberg,MD
96583,East Kevin,FL
26286,East Joelborough,IA
57130,Davisbury,OK
77207,Lake Angela,DC
11080,Adamburgh,FL
38617,Coryside,UT
29187,Halefort,WV
04713,Guerrabury,AR
62521,South Davidberg,IL
46983,Mejiaport,WA
33102,Carlsonside,LA
89433,West Tracyshire,RI
83999,East Nicoleburgh,GA
51126,West Michael,HI
55887,New Carolfurt,NC
52813,Lake Jerryfort,WA
13364,North Jason,TN
34744,Davisfurt,MN
40087,South Edward,DE
78756,Paulfort,GA
41229,West Susanchester,NM
23216,East Raymond,ME
74413,South Lindastad,SC
57624,Lake Michelletown,KS
89488,West David,MD
42769,Parkstown,WY
76282,Valdezfurt,MA
18743,Wiseport,NJ
90065,Greenville,WA
26650,Shawfort,FL
33271,Meganstad,MT
18286,Port Haroldchester,ND
55067,Bergland,WV
73152,North Matthew,VA
26652,Jamesmouth,GA
39961,Williamsport,CT
40477,North Mirandamouth,MI
11720,Brendanstad,IN
39473,Ronaldport,MT
74774,New Josephport,DE
82856,Robertmouth,NH
60945,Kennethton,ND
72044,West Jessicaside,DC
24535,Wrightland,PA
49779,East Jessicafort,SC
57765,Orozcostad,ME
13089,Barkerbury,NJ
18668,Williamsmouth,KS
69519,Benjaminville,MD
58421,Huntland,ND
91482,Saraport,RI
41560,Moralesburgh,VT
66537,Jenniferland,NJ
90306,Sanfordborough,WA
93902,Wandahaven,OK
47366,Lake Lauren,DC
61892,Ashleyborough,NY
46925,Hillburgh,FL
56556,Walterton,TN
61652,Browningport,WA
55617,Adamborough,VT
54274,Port Robertberg,LA
60962,Josephmouth,RI
04128,East Jeffreymouth,IA
73758,North Cheryl,KS
03964,Matthewsmouth,VA
55671,Alvarezside,ME
12091,West Matthewstad,VT
99572,Hernandezfort,TN
18927,New Heidi,NC
81137,Scottton,OK
40135,Lake Tommystad,KY
32305,East Juliehaven,DC
76565,Kevinmouth,NE
67636,Craigtown,TN
49405,New Brenda,OR
17183,Annettechester,AZ
81882,Port Teresaside,MS
71708,Fritzfurt,AR
74631,South Catherine,ID
38950,North Randyborough,AL
07518,New Keithburgh,SC
99504,Piercestad,WY
51967,South Rachel,GA
17007,Luisstad,MD
53315,Lake Nicolemouth,OK
88329,Perezfurt,NJ
01281,Shermanport,MI
61162,Mooreburgh,SC
68397,Robertsside,OK
60823,Kathrynburgh,NV
07624,South Bettychester,NH
11597,Jenkinstown,KS
07669,East Chelsea,NV
35913,New Ashleychester,WA
85682,West Chelseaburgh,SD
14532,Cohenstad,NY
44211,Lake Carolynfurt,MA
78402,Port Robin,HI
13267,Woodbury,MA
